CCSDS_OMM_VERS = 2.0
CREATION_DATE  = 
ORIGINATOR     = 

OBJECT_NAME    = SL-4 R/B
OBJECT_ID      = 2014-021B
CENTER_NAME    = EARTH
REF_FRAME      = TEME
TIME_SYSTEM    = UTC
MEAN_ELEMENT_THEORY = SGP/SGP4

EPOCH          = 2026-02-05T16:09:16.404192
MEAN_MOTION    = 15.38168742
ECCENTRICITY   = .0099048
INCLINATION    = 51.6065
RA_OF_ASC_NODE = 133.3414
ARG_OF_PERICENTER = 346.3080
MEAN_ANOMALY   = 13.5221

EPHEMERIS_TYPE = 0
CLASSIFICATION_TYPE = U
NORAD_CAT_ID   = 39679
ELEMENT_SET_NO = 999
REV_AT_EPOCH   = 65134
BSTAR          = .43274E-3
MEAN_MOTION_DOT = .19171E-3
MEAN_MOTION_DDOT = 0

CCSDS_OMM_VERS = 2.0
CREATION_DATE  = 
ORIGINATOR     = 

OBJECT_NAME    = ALOS-2
OBJECT_ID      = 2014-029A
CENTER_NAME    = EARTH
REF_FRAME      = TEME
TIME_SYSTEM    = UTC
MEAN_ELEMENT_THEORY = SGP/SGP4

EPOCH          = 2026-02-05T22:21:16.395264
MEAN_MOTION    = 14.79484990
ECCENTRICITY   = .00015003
INCLINATION    = 97.9220
RA_OF_ASC_NODE = 135.9856
ARG_OF_PERICENTER = 96.0921
MEAN_ANOMALY   = 264.0462

EPHEMERIS_TYPE = 0
CLASSIFICATION_TYPE = U
NORAD_CAT_ID   = 39766
ELEMENT_SET_NO = 999
REV_AT_EPOCH   = 63217
BSTAR          = .26696382E-4
MEAN_MOTION_DOT = .148E-5
MEAN_MOTION_DDOT = 0

CCSDS_OMM_VERS = 2.0
CREATION_DATE  = 
ORIGINATOR     = 

OBJECT_NAME    = YAOGAN-29
OBJECT_ID      = 2015-069A
CENTER_NAME    = EARTH
REF_FRAME      = TEME
TIME_SYSTEM    = UTC
MEAN_ELEMENT_THEORY = SGP/SGP4

EPOCH          = 2026-02-06T00:21:09.762912
MEAN_MOTION    = 14.82956742
ECCENTRICITY   = .00028367
INCLINATION    = 98.0172
RA_OF_ASC_NODE = 65.3540
ARG_OF_PERICENTER = 88.9837
MEAN_ANOMALY   = 271.1701

EPHEMERIS_TYPE = 0
CLASSIFICATION_TYPE = U
NORAD_CAT_ID   = 41038
ELEMENT_SET_NO = 999
REV_AT_EPOCH   = 55118
BSTAR          = .3797151E-4
MEAN_MOTION_DOT = .254E-5
MEAN_MOTION_DDOT = 0

CCSDS_OMM_VERS = 2.0
CREATION_DATE  = 
ORIGINATOR     = 

OBJECT_NAME    = ASTRO-H (HITOMI)
OBJECT_ID      = 2016-012A
CENTER_NAME    = EARTH
REF_FRAME      = TEME
TIME_SYSTEM    = UTC
MEAN_ELEMENT_THEORY = SGP/SGP4

EPOCH          = 2026-02-05T18:28:54.503328
MEAN_MOTION    = 15.09771099
ECCENTRICITY   = .00098671
INCLINATION    = 30.9980
RA_OF_ASC_NODE = 202.4944
ARG_OF_PERICENTER = 11.6980
MEAN_ANOMALY   = 348.3886

EPHEMERIS_TYPE = 0
CLASSIFICATION_TYPE = U
NORAD_CAT_ID   = 41337
ELEMENT_SET_NO = 999
REV_AT_EPOCH   = 54740
BSTAR          = .31185493E-3
MEAN_MOTION_DOT = .5259E-4
MEAN_MOTION_DDOT = 0

CCSDS_OMM_VERS = 2.0
CREATION_DATE  = 
ORIGINATOR     = 

OBJECT_NAME    = HXMT (HUIYAN)
OBJECT_ID      = 2017-034A
CENTER_NAME    = EARTH
REF_FRAME      = TEME
TIME_SYSTEM    = UTC
MEAN_ELEMENT_THEORY = SGP/SGP4

EPOCH          = 2026-02-05T21:57:28.618848
MEAN_MOTION    = 15.17043004
ECCENTRICITY   = .00311567
INCLINATION    = 43.0133
RA_OF_ASC_NODE = 193.2692
ARG_OF_PERICENTER = 31.5486
MEAN_ANOMALY   = 328.7222

EPHEMERIS_TYPE = 0
CLASSIFICATION_TYPE = U
NORAD_CAT_ID   = 42758
ELEMENT_SET_NO = 999
REV_AT_EPOCH   = 47771
BSTAR          = .50890317E-3
MEAN_MOTION_DOT = .10152E-3
MEAN_MOTION_DDOT = 0

CCSDS_OMM_VERS = 2.0
CREATION_DATE  = 
ORIGINATOR     = 

OBJECT_NAME    = CZ-2C R/B
OBJECT_ID      = 2018-054D
CENTER_NAME    = EARTH
REF_FRAME      = TEME
TIME_SYSTEM    = UTC
MEAN_ELEMENT_THEORY = SGP/SGP4

EPOCH          = 2026-02-05T16:38:43.690272
MEAN_MOTION    = 15.94208740
ECCENTRICITY   = .0013223
INCLINATION    = 35.1296
RA_OF_ASC_NODE = 163.7715
ARG_OF_PERICENTER = 352.0460
MEAN_ANOMALY   = 8.0068

EPHEMERIS_TYPE = 0
CLASSIFICATION_TYPE = U
NORAD_CAT_ID   = 43521
ELEMENT_SET_NO = 999
REV_AT_EPOCH   = 42376
BSTAR          = .97534E-3
MEAN_MOTION_DOT = .383685E-2
MEAN_MOTION_DDOT = .57499E-4

CCSDS_OMM_VERS = 2.0
CREATION_DATE  = 
ORIGINATOR     = 

OBJECT_NAME    = SAOCOM 1A
OBJECT_ID      = 2018-076A
CENTER_NAME    = EARTH
REF_FRAME      = TEME
TIME_SYSTEM    = UTC
MEAN_ELEMENT_THEORY = SGP/SGP4

EPOCH          = 2026-02-05T23:06:43.945632
MEAN_MOTION    = 14.82157778
ECCENTRICITY   = .00014541
INCLINATION    = 97.8863
RA_OF_ASC_NODE = 225.5859
ARG_OF_PERICENTER = 84.4421
MEAN_ANOMALY   = 275.6958

EPHEMERIS_TYPE = 0
CLASSIFICATION_TYPE = U
NORAD_CAT_ID   = 43641
ELEMENT_SET_NO = 999
REV_AT_EPOCH   = 39666
BSTAR          = .16910981E-3
MEAN_MOTION_DOT = .1294E-4
MEAN_MOTION_DDOT = 0

CCSDS_OMM_VERS = 2.0
CREATION_DATE  = 
ORIGINATOR     = 

OBJECT_NAME    = H-2A R/B
OBJECT_ID      = 2018-084L
CENTER_NAME    = EARTH
REF_FRAME      = TEME
TIME_SYSTEM    = UTC
MEAN_ELEMENT_THEORY = SGP/SGP4

EPOCH          = 2026-02-05T12:25:34.692096
MEAN_MOTION    = 15.39926733
ECCENTRICITY   = .00262985
INCLINATION    = 98.8756
RA_OF_ASC_NODE = 247.0647
ARG_OF_PERICENTER = 133.5764
MEAN_ANOMALY   = 226.7667

EPHEMERIS_TYPE = 0
CLASSIFICATION_TYPE = U
NORAD_CAT_ID   = 43682
ELEMENT_SET_NO = 999
REV_AT_EPOCH   = 40082
BSTAR          = .737259E-3
MEAN_MOTION_DOT = .29673E-3
MEAN_MOTION_DDOT = 0

CCSDS_OMM_VERS = 2.0
CREATION_DATE  = 
ORIGINATOR     = 

OBJECT_NAME    = SAOCOM 1B
OBJECT_ID      = 2020-059A
CENTER_NAME    = EARTH
REF_FRAME      = TEME
TIME_SYSTEM    = UTC
MEAN_ELEMENT_THEORY = SGP/SGP4

EPOCH          = 2026-02-05T23:51:44.147808
MEAN_MOTION    = 14.82161087
ECCENTRICITY   = .00013313
INCLINATION    = 97.8858
RA_OF_ASC_NODE = 224.7150
ARG_OF_PERICENTER = 82.6165
MEAN_ANOMALY   = 277.5199

EPHEMERIS_TYPE = 0
CLASSIFICATION_TYPE = U
NORAD_CAT_ID   = 46265
ELEMENT_SET_NO = 999
REV_AT_EPOCH   = 29405
BSTAR          = .95854829E-4
MEAN_MOTION_DOT = .711E-5
MEAN_MOTION_DDOT = 0

CCSDS_OMM_VERS = 2.0
CREATION_DATE  = 
ORIGINATOR     = 

OBJECT_NAME    = CSS (TIANHE)
OBJECT_ID      = 2021-035A
CENTER_NAME    = EARTH
REF_FRAME      = TEME
TIME_SYSTEM    = UTC
MEAN_ELEMENT_THEORY = SGP/SGP4

EPOCH          = 2026-02-05T23:03:54.500544
MEAN_MOTION    = 15.59269084
ECCENTRICITY   = .00054808
INCLINATION    = 41.4677
RA_OF_ASC_NODE = 41.0110
ARG_OF_PERICENTER = 9.4748
MEAN_ANOMALY   = 350.6192

EPHEMERIS_TYPE = 0
CLASSIFICATION_TYPE = U
NORAD_CAT_ID   = 48274
ELEMENT_SET_NO = 999
REV_AT_EPOCH   = 27265
BSTAR          = .41144981E-3
MEAN_MOTION_DOT = .33104E-3
MEAN_MOTION_DDOT = 0

CCSDS_OMM_VERS = 2.0
CREATION_DATE  = 
ORIGINATOR     = 

OBJECT_NAME    = COSMOS 2550
OBJECT_ID      = 2021-056A
CENTER_NAME    = EARTH
REF_FRAME      = TEME
TIME_SYSTEM    = UTC
MEAN_ELEMENT_THEORY = SGP/SGP4

EPOCH          = 2026-02-05T19:50:05.152992
MEAN_MOTION    = 15.33827470
ECCENTRICITY   = .00082543
INCLINATION    = 67.1430
RA_OF_ASC_NODE = 137.3119
ARG_OF_PERICENTER = 270.3406
MEAN_ANOMALY   = 89.6802

EPHEMERIS_TYPE = 0
CLASSIFICATION_TYPE = U
NORAD_CAT_ID   = 48865
ELEMENT_SET_NO = 999
REV_AT_EPOCH   = 25857
BSTAR          = .80990119E-4
MEAN_MOTION_DOT = .2473E-4
MEAN_MOTION_DDOT = 0

CCSDS_OMM_VERS = 2.0
CREATION_DATE  = 
ORIGINATOR     = 

OBJECT_NAME    = CZ-2C R/B
OBJECT_ID      = 2022-058K
CENTER_NAME    = EARTH
REF_FRAME      = TEME
TIME_SYSTEM    = UTC
MEAN_ELEMENT_THEORY = SGP/SGP4

EPOCH          = 2026-02-05T09:44:52.484064
MEAN_MOTION    = 15.51968467
ECCENTRICITY   = .00423678
INCLINATION    = 50.1890
RA_OF_ASC_NODE = 124.0666
ARG_OF_PERICENTER = 63.8858
MEAN_ANOMALY   = 296.6462

EPHEMERIS_TYPE = 0
CLASSIFICATION_TYPE = U
NORAD_CAT_ID   = 52794
ELEMENT_SET_NO = 999
REV_AT_EPOCH   = 20511
BSTAR          = .69408093E-3
MEAN_MOTION_DOT = .43938E-3
MEAN_MOTION_DDOT = 0

